[{"OBJECT_NAME":"FENGYUN 3C","OBJECT_ID":"2013-052A","EPOCH":"2026-03-09T23:00:17.582976","MEAN_MOTION":14.15729116,"ECCENTRICITY":0.00138136,"INCLINATION":98.4893,"RA_OF_ASC_NODE":47.4396,"ARG_OF_PERICENTER":312.3692,"MEAN_ANOMALY":47.6312,"EPHEMERIS_TYPE":0,"CLASSIFICATION_TYPE":"U","NORAD_CAT_ID":39260,"ELEMENT_SET_NO":999,"REV_AT_EPOCH":64452,"BSTAR":0.00010509622,"MEAN_MOTION_DOT":1.65e-6,"MEAN_MOTION_DDOT":0},{"OBJECT_NAME":"FENGYUN 1C DEB","OBJECT_ID":"1999-025CJU","EPOCH":"2026-03-09T22:50:09.854016","MEAN_MOTION":14.03208276,"ECCENTRICITY":0.00709787,"INCLINATION":98.851,"RA_OF_ASC_NODE":74.7514,"ARG_OF_PERICENTER":257.7613,"MEAN_ANOMALY":101.5599,"EPHEMERIS_TYPE":0,"CLASSIFICATION_TYPE":"U","NORAD_CAT_ID":31854,"ELEMENT_SET_NO":999,"REV_AT_EPOCH":70495,"BSTAR":0.00048943196,"MEAN_MOTION_DOT":7.36e-6,"MEAN_MOTION_DDOT":0}]
